start=new Date('2023-02-06T00:00:00.000Z').valueOf();
sats=[{"ECCENTRICITY":"0.00010990","ELEMENT_SET_NO":"999","TIME_SYSTEM":"UTC","EPHEMERIS_TYPE":"0","DECAY_DATE":null,"OBJECT_ID":"2022-045J","REV_AT_EPOCH":"4537","MEAN_ANOMALY":"276.5673","BSTAR":"0.00004459000000","MEAN_MOTION_DDOT":"0.0000000000000","SEMIMAJOR_AXIS":"6917.879","OBJECT_TYPE":"PAYLOAD","REF_FRAME":"TEME","RA_OF_ASC_NODE":"232.3147","ARG_OF_PERICENTER":"83.5444","CENTER_NAME":"EARTH","FILE":"3774172","TLE_LINE2":"2 52339  53.2138 232.3147 0001099  83.5444 276.5673 15.08840406 45376","CLASSIFICATION_TYPE":"U","NORAD_CAT_ID":"52339","PERIOD":"95.438","MEAN_ELEMENT_THEORY":"SGP4","RCS_SIZE":"LARGE","COUNTRY_CODE":"US","OBJECT_NAME":"STARLINK-3792","GP_ID":"224558267","MEAN_MOTION":"15.08840406","PERIAPSIS":"538.984","INCLINATION":"53.2138","EPOCH":"2023-02-05T19:45:02.230272","APOAPSIS":"540.504","TLE_LINE1":"1 52339U 22045J   23036.82294248  .00000422  00000-0  44590-4 0  9992","MEAN_MOTION_DOT":"0.00000422","SITE":"AFETR","LAUNCH_DATE":"2022-04-29"},{"REF_FRAME":"TEME","RA_OF_ASC_NODE":"222.4716","SEMIMAJOR_AXIS":"6917.933","OBJECT_TYPE":"PAYLOAD","BSTAR":"-0.00005728900000","MEAN_MOTION_DDOT":"0.0000000000000","MEAN_ANOMALY":"270.3428","REV_AT_EPOCH":"4549","EPHEMERIS_TYPE":"0","OBJECT_ID":"2022-045K","DECAY_DATE":null,"TIME_SYSTEM":"UTC","ECCENTRICITY":"0.00011740","ELEMENT_SET_NO":"999","TLE_LINE2":"2 52340  53.2159 222.4716 0001174  89.7698 270.3428 15.08822903 45491","FILE":"3774172","CENTER_NAME":"EARTH","ARG_OF_PERICENTER":"89.7698","RCS_SIZE":"LARGE","MEAN_ELEMENT_THEORY":"SGP4","PERIOD":"95.439","NORAD_CAT_ID":"52340","CLASSIFICATION_TYPE":"U","LAUNCH_DATE":"2022-04-29","SITE":"AFETR","TLE_LINE1":"1 52340U 22045K   23036.78612760 -.00001199  00000-0 -57289-4 0  9995","MEAN_MOTION_DOT":"-0.00001199","EPOCH":"2023-02-05T18:52:01.424640","APOAPSIS":"540.610","MEAN_MOTION":"15.08822903","PERIAPSIS":"538.985","INCLINATION":"53.2159","OBJECT_NAME":"STARLINK-3818","GP_ID":"224559517","COUNTRY_CODE":"US"},{"ECCENTRICITY":"0.00010550","ELEMENT_SET_NO":"999","TIME_SYSTEM":"UTC","EPHEMERIS_TYPE":"0","DECAY_DATE":null,"OBJECT_ID":"2022-045L","REV_AT_EPOCH":"4538","MEAN_ANOMALY":"269.3836","BSTAR":"0.00002232000000","MEAN_MOTION_DDOT":"0.0000000000000","SEMIMAJOR_AXIS":"6917.883","OBJECT_TYPE":"PAYLOAD","REF_FRAME":"TEME","RA_OF_ASC_NODE":"231.9986","ARG_OF_PERICENTER":"90.7277","FILE":"3774172","CENTER_NAME":"EARTH","TLE_LINE2":"2 52341  53.2140 231.9986 0001055  90.7277 269.3836 15.08839185 45388","CLASSIFICATION_TYPE":"U","NORAD_CAT_ID":"52341","PERIOD":"95.438","MEAN_ELEMENT_THEORY":"SGP4","RCS_SIZE":"LARGE","COUNTRY_CODE":"US","OBJECT_NAME":"STARLINK-3843","GP_ID":"224559254","MEAN_MOTION":"15.08839185","PERIAPSIS":"539.018","INCLINATION":"53.2140","EPOCH":"2023-02-05T21:25:43.685472","APOAPSIS":"540.478","TLE_LINE1":"1 52341U 22045L   23036.89286673  .00000067  00000-0  22320-4 0  9997","MEAN_MOTION_DOT":"0.00000067","SITE":"AFETR","LAUNCH_DATE":"2022-04-29"},{"PERIAPSIS":"538.854","MEAN_MOTION":"15.08842859","INCLINATION":"53.2160","COUNTRY_CODE":"US","OBJECT_NAME":"STARLINK-3850","GP_ID":"224558017","SITE":"AFETR","LAUNCH_DATE":"2022-04-29","EPOCH":"2023-02-05T21:52:09.873696","APOAPSIS":"540.619","TLE_LINE1":"1 52342U 22045M   23036.91122539  .00000521  00000-0  50835-4 0  9998","MEAN_MOTION_DOT":"0.00000521","CLASSIFICATION_TYPE":"U","MEAN_ELEMENT_THEORY":"SGP4","RCS_SIZE":"LARGE","NORAD_CAT_ID":"52342","PERIOD":"95.437","ARG_OF_PERICENTER":"82.7435","TLE_LINE2":"2 52342  53.2160 221.9130 0001276  82.7435 277.3703 15.08842859 45523","CENTER_NAME":"EARTH","FILE":"3774172","EPHEMERIS_TYPE":"0","DECAY_DATE":null,"OBJECT_ID":"2022-045M","REV_AT_EPOCH":"4552","ECCENTRICITY":"0.00012760","ELEMENT_SET_NO":"999","TIME_SYSTEM":"UTC","SEMIMAJOR_AXIS":"6917.872","OBJECT_TYPE":"PAYLOAD","RA_OF_ASC_NODE":"221.9130","REF_FRAME":"TEME","MEAN_ANOMALY":"277.3703","BSTAR":"0.00005083500000","MEAN_MOTION_DDOT":"0.0000000000000"},{"REV_AT_EPOCH":"4539","DECAY_DATE":null,"OBJECT_ID":"2022-045N","EPHEMERIS_TYPE":"0","TIME_SYSTEM":"UTC","ELEMENT_SET_NO":"999","ECCENTRICITY":"0.00011240","REF_FRAME":"TEME","RA_OF_ASC_NODE":"231.8593","SEMIMAJOR_AXIS":"6917.880","OBJECT_TYPE":"PAYLOAD","MEAN_MOTION_DDOT":"0.0000000000000","BSTAR":"0.00007731000000","MEAN_ANOMALY":"270.8268","ARG_OF_PERICENTER":"89.2853","TLE_LINE2":"2 52343  53.2123 231.8593 0001124  89.2853 270.8268 15.08840014 45394","FILE":"3774172","CENTER_NAME":"EARTH","CLASSIFICATION_TYPE":"U","RCS_SIZE":"LARGE","MEAN_ELEMENT_THEORY":"SGP4","PERIOD":"95.438","NORAD_CAT_ID":"52343","INCLINATION":"53.2123","PERIAPSIS":"538.968","MEAN_MOTION":"15.08840014","GP_ID":"224558767","OBJECT_NAME":"STARLINK-3849","COUNTRY_CODE":"US","LAUNCH_DATE":"2022-04-29","SITE":"AFETR","MEAN_MOTION_DOT":"0.00000943","TLE_LINE1":"1 52343U 22045N   23036.92502753  .00000943  00000-0  77310-4 0  9995","APOAPSIS":"540.523","EPOCH":"2023-02-05T22:12:02.378592"},{"EPHEMERIS_TYPE":"0","DECAY_DATE":null,"OBJECT_ID":"2022-045P","REV_AT_EPOCH":"4552","ECCENTRICITY":"0.00009500","ELEMENT_SET_NO":"999","TIME_SYSTEM":"UTC","SEMIMAJOR_AXIS":"6918.855","OBJECT_TYPE":"PAYLOAD","REF_FRAME":"TEME","RA_OF_ASC_NODE":"221.9476","MEAN_ANOMALY":"278.8835","BSTAR":"-0.00250020000000","MEAN_MOTION_DDOT":"0.0000000000000","ARG_OF_PERICENTER":"81.2265","TLE_LINE2":"2 52344  53.2151 221.9476 0000950  81.2265 278.8835 15.08521145 45525","CENTER_NAME":"EARTH","FILE":"3774172","CLASSIFICATION_TYPE":"U","MEAN_ELEMENT_THEORY":"SGP4","RCS_SIZE":"LARGE","NORAD_CAT_ID":"52344","PERIOD":"95.458","MEAN_MOTION":"15.08521145","PERIAPSIS":"540.063","INCLINATION":"53.2151","COUNTRY_CODE":"US","OBJECT_NAME":"STARLINK-3851","GP_ID":"224559018","SITE":"AFETR","LAUNCH_DATE":"2022-04-29","EPOCH":"2023-02-05T21:43:23.865312","APOAPSIS":"541.377","TLE_LINE1":"1 52344U 22045P   23036.90513733 -.00039515  00000-0 -25002-2 0  9992","MEAN_MOTION_DOT":"-0.00039515"},{"ELEMENT_SET_NO":"999","ECCENTRICITY":"0.00012000","TIME_SYSTEM":"UTC","DECAY_DATE":null,"OBJECT_ID":"2022-045Q","EPHEMERIS_TYPE":"0","REV_AT_EPOCH":"4551","MEAN_ANOMALY":"271.4333","MEAN_MOTION_DDOT":"0.0000000000000","BSTAR":"0.00006315300000","SEMIMAJOR_AXIS":"6917.880","OBJECT_TYPE":"PAYLOAD","RA_OF_ASC_NODE":"221.8669","REF_FRAME":"TEME","ARG_OF_PERICENTER":"88.6796","FILE":"3774172","CENTER_NAME":"EARTH","TLE_LINE2":"2 52345  53.2140 221.8669 0001200  88.6796 271.4333 15.08840223 45518","CLASSIFICATION_TYPE":"U","NORAD_CAT_ID":"52345","PERIOD":"95.438","MEAN_ELEMENT_THEORY":"SGP4","RCS_SIZE":"LARGE","COUNTRY_CODE":"US","GP_ID":"224559754","OBJECT_NAME":"STARLINK-3852","INCLINATION":"53.2140","PERIAPSIS":"538.915","MEAN_MOTION":"15.08840223","APOAPSIS":"540.575","EPOCH":"2023-02-05T22:08:03.784128","MEAN_MOTION_DOT":"0.00000717","TLE_LINE1":"1 52345U 22045Q   23036.92226602  .00000717  00000-0  63153-4 0  9992","SITE":"AFETR","LAUNCH_DATE":"2022-04-29"},{"ARG_OF_PERICENTER":"84.2807","TLE_LINE2":"2 52346  53.2147 221.9496 0001175  84.2807 275.8319 15.08841312 45524","CENTER_NAME":"EARTH","FILE":"3774172","EPHEMERIS_TYPE":"0","OBJECT_ID":"2022-045R","DECAY_DATE":null,"REV_AT_EPOCH":"4552","ECCENTRICITY":"0.00011750","ELEMENT_SET_NO":"999","TIME_SYSTEM":"UTC","OBJECT_TYPE":"PAYLOAD","SEMIMAJOR_AXIS":"6917.876","REF_FRAME":"TEME","RA_OF_ASC_NODE":"221.9496","MEAN_ANOMALY":"275.8319","BSTAR":"0.00006588800000","MEAN_MOTION_DDOT":"0.0000000000000","PERIAPSIS":"538.929","MEAN_MOTION":"15.08841312","INCLINATION":"53.2147","COUNTRY_CODE":"US","OBJECT_NAME":"STARLINK-3812","GP_ID":"224558517","SITE":"AFETR","LAUNCH_DATE":"2022-04-29","EPOCH":"2023-02-05T21:41:34.011168","APOAPSIS":"540.554","TLE_LINE1":"1 52346U 22045R   23036.90386587  .00000761  00000-0  65888-4 0  9996","MEAN_MOTION_DOT":"0.00000761","CLASSIFICATION_TYPE":"U","MEAN_ELEMENT_THEORY":"SGP4","RCS_SIZE":"LARGE","NORAD_CAT_ID":"52346","PERIOD":"95.437"},{"ELEMENT_SET_NO":"999","ECCENTRICITY":"0.00011970","TIME_SYSTEM":"UTC","DECAY_DATE":null,"OBJECT_ID":"2022-045S","EPHEMERIS_TYPE":"0","REV_AT_EPOCH":"4550","MEAN_ANOMALY":"270.1011","MEAN_MOTION_DDOT":"0.0000000000000","BSTAR":"0.00005261500000","SEMIMAJOR_AXIS":"6917.871","OBJECT_TYPE":"PAYLOAD","REF_FRAME":"TEME","RA_OF_ASC_NODE":"222.4973","ARG_OF_PERICENTER":"90.0119","FILE":"3774172","CENTER_NAME":"EARTH","TLE_LINE2":"2 52347  53.2135 222.4973 0001197  90.0119 270.1011 15.08843227 45505","CLASSIFICATION_TYPE":"U","NORAD_CAT_ID":"52347","PERIOD":"95.437","MEAN_ELEMENT_THEORY":"SGP4","RCS_SIZE":"LARGE","COUNTRY_CODE":"US","GP_ID":"224558268","OBJECT_NAME":"STARLINK-3826","INCLINATION":"53.2135","MEAN_MOTION":"15.08843227","PERIAPSIS":"538.907","APOAPSIS":"540.564","EPOCH":"2023-02-05T18:46:41.462112","MEAN_MOTION_DOT":"0.00000550","TLE_LINE1":"1 52347U 22045S   23036.78242433  .00000550  00000-0  52615-4 0  9994","SITE":"AFETR","LAUNCH_DATE":"2022-04-29"},{"TLE_LINE2":"2 52348  53.2142 221.9823 0001136  86.8384 273.2738 15.08840226 45520","CENTER_NAME":"EARTH","FILE":"3774172","ARG_OF_PERICENTER":"86.8384","SEMIMAJOR_AXIS":"6917.880","OBJECT_TYPE":"PAYLOAD","REF_FRAME":"TEME","RA_OF_ASC_NODE":"221.9823","MEAN_ANOMALY":"273.2738","BSTAR":"0.00005368200000","MEAN_MOTION_DDOT":"0.0000000000000","EPHEMERIS_TYPE":"0","DECAY_DATE":null,"OBJECT_ID":"2022-045T","REV_AT_EPOCH":"4552","ECCENTRICITY":"0.00011360","ELEMENT_SET_NO":"999","TIME_SYSTEM":"UTC","SITE":"AFETR","LAUNCH_DATE":"2022-04-29","EPOCH":"2023-02-05T21:30:58.415616","APOAPSIS":"540.531","TLE_LINE1":"1 52348U 22045T   23036.89650944  .00000567  00000-0  53682-4 0  9990","MEAN_MOTION_DOT":"0.00000567","MEAN_MOTION":"15.08840226","PERIAPSIS":"538.959","INCLINATION":"53.2142","COUNTRY_CODE":"US","OBJECT_NAME":"STARLINK-3829","GP_ID":"224559518","MEAN_ELEMENT_THEORY":"SGP4","RCS_SIZE":"LARGE","NORAD_CAT_ID":"52348","PERIOD":"95.438","CLASSIFICATION_TYPE":"U"}];
